[{"OBJECT_NAME":"LEMUR-2-DELOITTE-1","OBJECT_ID":"2025-052BB","EPOCH":"2026-03-09T22:32:58.708896","MEAN_MOTION":14.9679712,"ECCENTRICITY":0.00030112,"INCLINATION":97.7035,"RA_OF_ASC_NODE":323.209,"ARG_OF_PERICENTER":78.3841,"MEAN_ANOMALY":281.7719,"EPHEMERIS_TYPE":0,"CLASSIFICATION_TYPE":"U","NORAD_CAT_ID":63259,"ELEMENT_SET_NO":999,"REV_AT_EPOCH":5384,"BSTAR":0.00044206323,"MEAN_MOTION_DOT":5.004e-5,"MEAN_MOTION_DDOT":0},{"OBJECT_NAME":"STARLINK-36184","OBJECT_ID":"2025-293U","EPOCH":"2026-03-09T11:28:32.819232","MEAN_MOTION":14.98351122,"ECCENTRICITY":0.00031945,"INCLINATION":70.0004,"RA_OF_ASC_NODE":95.0902,"ARG_OF_PERICENTER":270.1874,"MEAN_ANOMALY":89.8919,"EPHEMERIS_TYPE":0,"CLASSIFICATION_TYPE":"U","NORAD_CAT_ID":67021,"ELEMENT_SET_NO":999,"REV_AT_EPOCH":1485,"BSTAR":0.00039681348,"MEAN_MOTION_DOT":4.647e-5,"MEAN_MOTION_DDOT":0}]
